start=new Date('2022-08-28T00:00:00.000Z').valueOf();
sats=[{"TLE_LINE2":"2 52129  53.2148  99.1290 0001954  70.4289 280.5208 15.08840245  1309","EPOCH":"2022-08-27T22:00:00.999936","SITE":"AFETR","SEMIMAJOR_AXIS":"6917.880","TIME_SYSTEM":"UTC","MEAN_ELEMENT_THEORY":"SGP4","LAUNCH_DATE":"2022-03-19","ELEMENT_SET_NO":"999","NORAD_CAT_ID":"52129","FILE":"3548882","REV_AT_EPOCH":"130","EPHEMERIS_TYPE":"0","DECAY_DATE":null,"APOAPSIS":"541.096","MEAN_MOTION_DOT":"-0.00004366","RCS_SIZE":"LARGE","OBJECT_TYPE":"PAYLOAD","CLASSIFICATION_TYPE":"U","GP_ID":"211137697","MEAN_MOTION":"15.08840245","RA_OF_ASC_NODE":"99.1290","ECCENTRICITY":"0.00019540","PERIOD":"95.438","ARG_OF_PERICENTER":"70.4289","OBJECT_ID":"2022-029AT","MEAN_MOTION_DDOT":"0.0000000000000","COUNTRY_CODE":"US","MEAN_ANOMALY":"280.5208","PERIAPSIS":"538.393","REF_FRAME":"TEME","INCLINATION":"53.2148","CENTER_NAME":"EARTH","OBJECT_NAME":"STARLINK-3661","TLE_LINE1":"1 52129U 22029AT  22239.91667824 -.00004366  00000-0 -25634-3 0  9999","BSTAR":"-0.00025634000000"},{"MEAN_MOTION":"15.08844202","RA_OF_ASC_NODE":"99.1270","ECCENTRICITY":"0.00015390","DECAY_DATE":null,"MEAN_MOTION_DOT":"-0.00006320","APOAPSIS":"540.797","RCS_SIZE":"LARGE","OBJECT_TYPE":"PAYLOAD","GP_ID":"211136483","CLASSIFICATION_TYPE":"U","TIME_SYSTEM":"UTC","SITE":"AFETR","SEMIMAJOR_AXIS":"6917.868","MEAN_ELEMENT_THEORY":"SGP4","LAUNCH_DATE":"2022-03-19","ELEMENT_SET_NO":"999","NORAD_CAT_ID":"52131","EPHEMERIS_TYPE":"0","FILE":"3548882","REV_AT_EPOCH":"130","TLE_LINE2":"2 52131  53.2171  99.1270 0001539  62.4288 308.4303 15.08844202  1308","EPOCH":"2022-08-27T22:00:00.999936","OBJECT_NAME":"STARLINK-3711","TLE_LINE1":"1 52131U 22029AV  22239.91667824 -.00006320  00000-0 -37926-3 0  9991","BSTAR":"-0.00037926000000","CENTER_NAME":"EARTH","MEAN_ANOMALY":"308.4303","PERIAPSIS":"538.668","REF_FRAME":"TEME","INCLINATION":"53.2171","OBJECT_ID":"2022-029AV","PERIOD":"95.437","ARG_OF_PERICENTER":"62.4288","COUNTRY_CODE":"US","MEAN_MOTION_DDOT":"0.0000000000000"},{"CENTER_NAME":"EARTH","BSTAR":"-0.00012844000000","TLE_LINE1":"1 52132U 22029AW  22239.91667824 -.00002332  00000-0 -12844-3 0  9993","OBJECT_NAME":"STARLINK-3718","OBJECT_ID":"2022-029AW","PERIOD":"95.437","ARG_OF_PERICENTER":"58.1464","MEAN_MOTION_DDOT":"0.0000000000000","COUNTRY_CODE":"US","REF_FRAME":"TEME","INCLINATION":"53.2158","MEAN_ANOMALY":"272.8140","PERIAPSIS":"538.098","OBJECT_TYPE":"PAYLOAD","RCS_SIZE":"LARGE","CLASSIFICATION_TYPE":"U","GP_ID":"211137234","DECAY_DATE":null,"MEAN_MOTION_DOT":"-0.00002332","APOAPSIS":"541.353","RA_OF_ASC_NODE":"99.1343","ECCENTRICITY":"0.00023530","MEAN_MOTION":"15.08846543","EPOCH":"2022-08-27T22:00:00.999936","TLE_LINE2":"2 52132  53.2158  99.1343 0002353  58.1464 272.8140 15.08846543  1301","ELEMENT_SET_NO":"999","LAUNCH_DATE":"2022-03-19","FILE":"3548882","REV_AT_EPOCH":"130","EPHEMERIS_TYPE":"0","NORAD_CAT_ID":"52132","SITE":"AFETR","SEMIMAJOR_AXIS":"6917.860","TIME_SYSTEM":"UTC","MEAN_ELEMENT_THEORY":"SGP4"},{"TLE_LINE1":"1 52133U 22029AX  22239.91667824 -.00008055  00000-0 -48857-3 0  9995","OBJECT_NAME":"STARLINK-3707","BSTAR":"-0.00048857000000","CENTER_NAME":"EARTH","PERIAPSIS":"538.487","MEAN_ANOMALY":"346.1976","INCLINATION":"53.2171","REF_FRAME":"TEME","MEAN_MOTION_DDOT":"0.0000000000000","COUNTRY_CODE":"US","ARG_OF_PERICENTER":"64.7681","PERIOD":"95.438","OBJECT_ID":"2022-029AX","MEAN_MOTION":"15.08840053","ECCENTRICITY":"0.00018190","RA_OF_ASC_NODE":"99.1256","APOAPSIS":"541.004","MEAN_MOTION_DOT":"-0.00008055","DECAY_DATE":null,"GP_ID":"211137971","CLASSIFICATION_TYPE":"U","OBJECT_TYPE":"PAYLOAD","RCS_SIZE":"LARGE","MEAN_ELEMENT_THEORY":"SGP4","SITE":"AFETR","SEMIMAJOR_AXIS":"6917.880","TIME_SYSTEM":"UTC","FILE":"3548882","REV_AT_EPOCH":"130","EPHEMERIS_TYPE":"0","NORAD_CAT_ID":"52133","ELEMENT_SET_NO":"999","LAUNCH_DATE":"2022-03-19","EPOCH":"2022-08-27T22:00:00.999936","TLE_LINE2":"2 52133  53.2171  99.1256 0001819  64.7681 346.1976 15.08840053  1302"},{"TLE_LINE1":"1 52134U 22029AY  22239.91667824 -.00007628  00000-0 -46155-3 0  9990","OBJECT_NAME":"STARLINK-3721","BSTAR":"-0.00046155000000","CENTER_NAME":"EARTH","PERIAPSIS":"538.420","MEAN_ANOMALY":"332.0376","REF_FRAME":"TEME","INCLINATION":"53.2166","PERIOD":"95.437","OBJECT_ID":"2022-029AY","ARG_OF_PERICENTER":"58.9221","MEAN_MOTION_DDOT":"0.0000000000000","COUNTRY_CODE":"US","MEAN_MOTION":"15.08846615","RA_OF_ASC_NODE":"99.1253","ECCENTRICITY":"0.00018860","DECAY_DATE":null,"APOAPSIS":"541.030","MEAN_MOTION_DOT":"-0.00007628","RCS_SIZE":"LARGE","OBJECT_TYPE":"PAYLOAD","GP_ID":"211138191","CLASSIFICATION_TYPE":"U","TIME_SYSTEM":"UTC","SITE":"AFETR","SEMIMAJOR_AXIS":"6917.860","MEAN_ELEMENT_THEORY":"SGP4","ELEMENT_SET_NO":"999","LAUNCH_DATE":"2022-03-19","FILE":"3548882","EPHEMERIS_TYPE":"0","REV_AT_EPOCH":"130","NORAD_CAT_ID":"52134","EPOCH":"2022-08-27T22:00:00.999936","TLE_LINE2":"2 52134  53.2166  99.1253 0001886  58.9221 332.0376 15.08846615  1301"},{"TLE_LINE1":"1 52135U 22029AZ  22239.91667824 -.00006651  00000-0 -40016-3 0  9996","OBJECT_NAME":"STARLINK-3729","BSTAR":"-0.00040016000000","CENTER_NAME":"EARTH","MEAN_ANOMALY":"54.6705","PERIAPSIS":"538.288","INCLINATION":"53.2176","REF_FRAME":"TEME","COUNTRY_CODE":"US","MEAN_MOTION_DDOT":"0.0000000000000","PERIOD":"95.437","OBJECT_ID":"2022-029AZ","ARG_OF_PERICENTER":"56.2952","MEAN_MOTION":"15.08840930","ECCENTRICITY":"0.00021020","RA_OF_ASC_NODE":"99.1258","APOAPSIS":"541.197","MEAN_MOTION_DOT":"-0.00006651","DECAY_DATE":null,"GP_ID":"211136977","CLASSIFICATION_TYPE":"U","RCS_SIZE":"LARGE","OBJECT_TYPE":"PAYLOAD","MEAN_ELEMENT_THEORY":"SGP4","TIME_SYSTEM":"UTC","SITE":"AFETR","SEMIMAJOR_AXIS":"6917.878","FILE":"3548882","REV_AT_EPOCH":"130","EPHEMERIS_TYPE":"0","NORAD_CAT_ID":"52135","ELEMENT_SET_NO":"999","LAUNCH_DATE":"2022-03-19","EPOCH":"2022-08-27T22:00:00.999936","TLE_LINE2":"2 52135  53.2176  99.1258 0002102  56.2952  54.6705 15.08840930  1309"},{"DECAY_DATE":null,"APOAPSIS":"541.093","MEAN_MOTION_DOT":"-0.00022704","OBJECT_TYPE":"PAYLOAD","RCS_SIZE":"LARGE","CLASSIFICATION_TYPE":"U","GP_ID":"211137728","MEAN_MOTION":"15.08862760","RA_OF_ASC_NODE":"99.1253","ECCENTRICITY":"0.00020490","EPOCH":"2022-08-27T22:00:00.999936","TLE_LINE2":"2 52136  53.2172  99.1253 0002049  63.0612   7.8952 15.08862760  1309","SITE":"AFETR","SEMIMAJOR_AXIS":"6917.811","TIME_SYSTEM":"UTC","MEAN_ELEMENT_THEORY":"SGP4","ELEMENT_SET_NO":"999","LAUNCH_DATE":"2022-03-19","EPHEMERIS_TYPE":"0","FILE":"3548882","REV_AT_EPOCH":"130","NORAD_CAT_ID":"52136","CENTER_NAME":"EARTH","TLE_LINE1":"1 52136U 22029BA  22239.91667824 -.00022704  00000-0 -14120-2 0  9990","OBJECT_NAME":"STARLINK-3720","BSTAR":"-0.00141200000000","OBJECT_ID":"2022-029BA","PERIOD":"95.436","ARG_OF_PERICENTER":"63.0612","MEAN_MOTION_DDOT":"0.0000000000000","COUNTRY_CODE":"US","MEAN_ANOMALY":"7.8952","PERIAPSIS":"538.258","REF_FRAME":"TEME","INCLINATION":"53.2172"},{"REF_FRAME":"TEME","INCLINATION":"53.2174","MEAN_ANOMALY":"68.9003","PERIAPSIS":"538.403","PERIOD":"95.437","OBJECT_ID":"2022-029BB","ARG_OF_PERICENTER":"62.0829","COUNTRY_CODE":"US","MEAN_MOTION_DDOT":"0.0000000000000","BSTAR":"-0.00027686000000","TLE_LINE1":"1 52137U 22029BB  22239.91667824 -.00004692  00000-0 -27686-3 0  9999","OBJECT_NAME":"STARLINK-3733","CENTER_NAME":"EARTH","ELEMENT_SET_NO":"999","LAUNCH_DATE":"2022-03-19","REV_AT_EPOCH":"130","FILE":"3548882","EPHEMERIS_TYPE":"0","NORAD_CAT_ID":"52137","SITE":"AFETR","SEMIMAJOR_AXIS":"6917.873","TIME_SYSTEM":"UTC","MEAN_ELEMENT_THEORY":"SGP4","EPOCH":"2022-08-27T22:00:00.999936","TLE_LINE2":"2 52137  53.2174  99.1248 0001929  62.0829  68.9003 15.08842501  1307","RA_OF_ASC_NODE":"99.1248","ECCENTRICITY":"0.00019290","MEAN_MOTION":"15.08842501","OBJECT_TYPE":"PAYLOAD","RCS_SIZE":"LARGE","GP_ID":"211137478","CLASSIFICATION_TYPE":"U","DECAY_DATE":null,"APOAPSIS":"541.072","MEAN_MOTION_DOT":"-0.00004692"},{"CENTER_NAME":"EARTH","BSTAR":"-0.00046687000000","OBJECT_NAME":"STARLINK-3723","TLE_LINE1":"1 52138U 22029BC  22239.91667824 -.00007712  00000-0 -46687-3 0  9998","OBJECT_ID":"2022-029BC","PERIOD":"95.437","ARG_OF_PERICENTER":"64.0077","COUNTRY_CODE":"US","MEAN_MOTION_DDOT":"0.0000000000000","REF_FRAME":"TEME","INCLINATION":"53.2176","MEAN_ANOMALY":"26.9508","PERIAPSIS":"538.496","OBJECT_TYPE":"PAYLOAD","RCS_SIZE":"LARGE","GP_ID":"211137698","CLASSIFICATION_TYPE":"U","DECAY_DATE":null,"APOAPSIS":"540.968","MEAN_MOTION_DOT":"-0.00007712","RA_OF_ASC_NODE":"99.1263","ECCENTRICITY":"0.00017870","MEAN_MOTION":"15.08844310","TLE_LINE2":"2 52138  53.2176  99.1263 0001787  64.0077  26.9508 15.08844310  1300","EPOCH":"2022-08-27T22:00:00.999936","LAUNCH_DATE":"2022-03-19","ELEMENT_SET_NO":"999","NORAD_CAT_ID":"52138","FILE":"3548882","EPHEMERIS_TYPE":"0","REV_AT_EPOCH":"130","SEMIMAJOR_AXIS":"6917.867","SITE":"AFETR","TIME_SYSTEM":"UTC","MEAN_ELEMENT_THEORY":"SGP4"},{"MEAN_MOTION":"15.08834343","ECCENTRICITY":"0.00019300","RA_OF_ASC_NODE":"109.1302","APOAPSIS":"541.098","MEAN_MOTION_DOT":"-0.00009646","DECAY_DATE":null,"CLASSIFICATION_TYPE":"U","GP_ID":"211136484","RCS_SIZE":"LARGE","OBJECT_TYPE":"PAYLOAD","MEAN_ELEMENT_THEORY":"SGP4","SEMIMAJOR_AXIS":"6917.898","SITE":"AFETR","TIME_SYSTEM":"UTC","FILE":"3548882","EPHEMERIS_TYPE":"0","REV_AT_EPOCH":"130","NORAD_CAT_ID":"52139","ELEMENT_SET_NO":"999","LAUNCH_DATE":"2022-03-19","EPOCH":"2022-08-27T22:00:00.999936","TLE_LINE2":"2 52139  53.2161 109.1302 0001930  57.7549 138.2474 15.08834343  1308","TLE_LINE1":"1 52139U 22029BD  22239.91667824 -.00009646  00000-0 -58884-3 0  9999","OBJECT_NAME":"STARLINK-3730","BSTAR":"-0.00058884000000","CENTER_NAME":"EARTH","PERIAPSIS":"538.428","MEAN_ANOMALY":"138.2474","INCLINATION":"53.2161","REF_FRAME":"TEME","COUNTRY_CODE":"US","MEAN_MOTION_DDOT":"0.0000000000000","PERIOD":"95.438","OBJECT_ID":"2022-029BD","ARG_OF_PERICENTER":"57.7549"}];
